CZ-6A R/B               
1 65233U 25178F   25255.97446014  .00000038  00000+0  13882-4 0  9992
2 65233  86.5036 106.8248 0104418  35.8300 324.9819 13.94579396  3684
CZ-4C R/B               
1 65234U 25177B   25255.70769264  .00001124  00000+0  10060-3 0  9999
2 65234  10.9956 293.7206 0151219 348.7591  10.9293 14.57562234  3845
STARLINK-34842          
1 65235U 25179A   25255.88014741  .00018141  00000+0  46592-3 0  9990
2 65235  97.6039 296.9263 0001081  93.6519 266.4849 15.39364984  4743
STARLINK-34938          
1 65236U 25179B   25255.91668981 -.02836402  00000+0 -75359-1 0  9999
2 65236  97.6040 297.0500 0001317  69.7980 312.8909 15.41831822  5062
STARLINK-34958          
1 65237U 25179C   25255.91668981  .00036621  00000+0  93736-3 0  9992
2 65237  97.6037 297.0052 0001623  86.6794 205.8096 15.39320881  5177
STARLINK-34818          
1 65238U 25179D   25255.84149957  .00034647  00000+0  63523-3 0  9999
2 65238  97.6032 296.9807 0001285  91.8038 268.3359 15.49222411  4741
STARLINK-34964          
1 65239U 25179E   25255.91668981  .00039099  00000+0  10004-2 0  9992
2 65239  97.6040 296.9941 0001662  86.2076 182.2930 15.39318861  5013
STARLINK-34953          
1 65240U 25179F   25255.91668981  .00039527  00000+0  10118-2 0  9996
2 65240  97.6038 297.0265 0001480  71.8363 268.5780 15.39303038  5178
STARLINK-34969          
1 65241U 25179G   25255.91668981 -.01833755  00000+0 -43890-1 0  9997
2 65241  97.6035 297.0622 0002047  65.5723 347.8516 15.44533350  5001
STARLINK-34963          
1 65242U 25179H   25255.84024888 -.01046399  00000+0 -21939-1 0  9992
2 65242  97.6022 296.9828 0007533  72.3401 287.8670 15.48085369  4748
STARLINK-34982          
1 65243U 25179J   25255.91668981  .00034843  00000+0  89217-3 0  9992
2 65243  97.6039 297.0156 0001091  78.3923 238.0973 15.39321642  5181
STARLINK-34990          
1 65244U 25179K   25255.90480410 -.00099887  00000+0 -20233-2 0  9994
2 65244  97.6027 297.0496 0003719  28.7738 331.3716 15.46723449  4751
STARLINK-34977          
1 65245U 25179L   25255.91668981  .00039369  00000+0  10072-2 0  9994
2 65245  97.6039 297.0341 0001614  68.1203 294.3544 15.39319102  4971
STARLINK-34959          
1 65246U 25179M   25255.87581511  .00026586  00000+0  68144-3 0  9994
2 65246  97.6031 296.9326 0000852  98.4817 261.6525 15.39346373  4746
STARLINK-34923          
1 65247U 25179N   25255.91668981  .00037219  00000+0  95264-3 0  9995
2 65247  97.6039 296.9953 0001444  89.1473 181.3553 15.39318904  5079
STARLINK-34962          
1 65248U 25179P   25255.91668981 -.02596222  00000+0 -70174-1 0  9995
2 65248  97.6037 297.0597 0001431  61.4914 343.4065 15.41605839  5015
STARLINK-34925          
1 65249U 25179Q   25255.90230249  .00049020  00000+0  89657-3 0  9990
2 65249  97.6028 297.0542 0001523  88.8363 271.3062 15.49215463  4753
STARLINK-34973          
1 65250U 25179R   25255.77298213  .01204218  00000+0  20490-1 0  9993
2 65250  97.6032 296.9180 0007757 157.7128 202.4461 15.48685391  4732
STARLINK-34989          
1 65251U 25179S   25255.83702114  .00049365  00000+0  90271-3 0  9996
2 65251  97.6031 296.9861 0001361  76.3661 283.7741 15.49219404  4744
STARLINK-34961          
1 65252U 25179T   25255.58037747 -.05271565  00000+0 -16645+0 0  9997
2 65252  97.6030 296.7135 0057871 115.0178 245.7090 15.35640083  4704
STARLINK-34933          
1 65253U 25179U   25255.91668981  .00035829  00000+0  91736-3 0  9997
2 65253  97.6039 297.0105 0000913  44.7698 259.7259 15.39317811  5027
STARLINK-34979          
1 65254U 25179V   25255.91668981  .00035621  00000+0  91204-3 0  9998
2 65254  97.6040 296.9998 0000742  66.0938 214.4096 15.39318162  5029
STARLINK-34987          
1 65255U 25179W   25255.91668981  .00033986  00000+0  87041-3 0  9995
2 65255  97.6039 297.0210 0001473  78.4602 250.0312 15.39319989  5018
STARLINK-34971          
1 65256U 25179X   25255.91668981 -.01828638  00000+0 -42698-1 0  9992
2 65256  97.6044 297.0768 0001857  71.1674  14.2855 15.45250332  5170
STARLINK-34966          
1 65257U 25179Y   25255.89982067 -.00689310  00000+0 -14400-1 0  9995
2 65257  97.6025 297.0577 0001165 180.0138 180.1112 15.48016164  4753
STARLINK-34980          
1 65258U 25179Z   25255.91668981  .00051080  00000+0  13058-2 0  9999
2 65258  97.6035 297.0518 0001762  61.4111 333.0192 15.39281704  5017
2025-180A               
1 65259U 25180A   25254.38681646  .00009579  00000+0  55260-3 0  9993
2 65259  97.4935  20.5095 0015004 202.4983 157.5592 15.12470895  3497
2025-180B               
1 65260U 25180B   25254.39129348  .00003386  00000+0  20085-3 0  9999
2 65260  97.4949  20.5068 0014591 198.8692 161.2000 15.11935818  3484
2025-180C               
1 65261U 25180C   25255.97958044  .00004417  00000+0  26071-3 0  9995
2 65261  97.4938  22.0616 0015173 195.8042 164.2717 15.11948675  3722
2025-180D               
1 65262U 25180D   25254.39108428  .00004276  00000+0  25271-3 0  9998
2 65262  97.4952  20.5079 0014542 196.3521 163.7242 15.11929455  3487
2025-180E               
1 65263U 25180E   25254.38691161  .00002869  00000+0  16930-3 0  9997
2 65263  97.4939  20.5087 0013510 192.3044 167.7859 15.12261620  3484
ZK-1A R/B               
1 65264U 25180F   25255.65588380  .00113064  56962-5  55320-3 0  9997
2 65264  97.5778  23.7351 0192661 300.6687  57.5703 15.60047249  3787
BION-M 02               
1 65265U 25181A   25255.78591924  .01459314  11254-5  18977-3 0  9995
2 65265  95.5069 326.2962 0253492  68.0839 294.7176 15.85063796  3637
2025-182A               
1 65267U 25182A   25254.40208199  .00031536  00000+0  15461-3 0  9992
2 65267  96.5862 187.5809 0015780 160.0149 200.1743 15.82001352  3315
2025-182B               
1 65268U 25182B   25254.40244434  .00030041  00000+0  14773-3 0  9990
2 65268  96.5858 187.5810 0015561 159.3294 200.8610 15.81949103  3316
2025-182C               
1 65269U 25182C   25254.40374829  .00033574  00000+0  16591-3 0  9997
2 65269  96.5872 187.5772 0015866 160.6701 199.5175 15.81818717  3312
2025-182D               
1 65270U 25182D   25254.34081583  .00034009  00000+0  16842-3 0  9997
2 65270  96.5870 187.5172 0015858 160.2879 199.9008 15.81770234  3320
STARLINK-34922          
1 65273U 25184A   25255.91668981 -.01960263  00000+0 -45604-1 0  9998
2 65273  97.6033 306.2536 0001408  77.4867 347.5626 15.45585772  4534
STARLINK-34904          
1 65274U 25184B   25255.91668981  .00046957  00000+0  86091-3 0  9998
2 65274  97.6035 306.2575 0001609  86.8903 347.3427 15.49156243  4536
STARLINK-34954          
1 65275U 25184C   25255.91668981  .00041496  00000+0  76233-3 0  9999
2 65275  97.6035 306.2575 0001481  92.0734 343.9817 15.49126822  4531
STARLINK-34968          
1 65276U 25184D   25255.91668981  .00038732  00000+0  71103-3 0  9990
2 65276  97.6035 306.2589 0001579  88.7193 349.3511 15.49161744  4539
STARLINK-34935          
1 65277U 25184E   25255.91668981 -.01518820  00000+0 -30601-1 0  9991
2 65277  97.6041 306.2609 0002093  76.8234   3.1360 15.49417888  4536
STARLINK-35000          
1 65278U 25184F   25255.91668981  .00041932  00000+0  76939-3 0  9990
2 65278  97.6034 306.2608 0001767  86.2054 355.7079 15.49159175  4535
STARLINK-35023          
1 65279U 25184G   25255.91668981  .00045866  00000+0  84104-3 0  9994
2 65279  97.6035 306.2619 0001842  83.9605 359.8725 15.49157094  4530
STARLINK-35001          
1 65280U 25184H   25255.91668981  .00037719  00000+0  69255-3 0  9994
2 65280  97.6035 306.2623 0001639  86.2138 359.5370 15.49162849  4535
STARLINK-35010          
1 65281U 25184J   25255.91668981 -.01973525  00000+0 -44897-1 0  9995
2 65281  97.6037 306.2612 0001521  63.3945  19.3336 15.46256350  4539
STARLINK-35021          
1 65282U 25184K   25255.91668981  .00023372  00000+0  43022-3 0  9990
2 65282  97.6036 306.2637 0001592  76.8127  12.7779 15.49187756  4483
STARLINK-35015          
1 65283U 25184L   25255.91668981  .00038505  00000+0  70695-3 0  9991
2 65283  97.6035 306.2650 0001414  93.0691 358.4497 15.49159751  4535
STARLINK-35006          
1 65284U 25184M   25255.91668981  .00043377  00000+0  79564-3 0  9999
2 65284  97.6036 306.2669 0001842  86.0881   9.2657 15.49160898  4538
STARLINK-34995          
1 65285U 25184N   25255.91668981  .00037928  00000+0  69636-3 0  9994
2 65285  97.6035 306.2658 0001738  88.5697   4.8651 15.49162295  4530
STARLINK-35048          
1 65286U 25184P   25255.91668981  .00038203  00000+0  70143-3 0  9997
2 65286  97.6036 306.2676 0001742  84.8585  12.4188 15.49160707  4482
STARLINK-35007          
1 65287U 25184Q   25255.91668981  .00050553  00000+0  92638-3 0  9993
2 65287  97.6036 306.2689 0001836  85.4028  13.8047 15.49153254  4477
STARLINK-35018          
1 65288U 25184R   25255.91668981  .00041226  00000+0  75642-3 0  9997
2 65288  97.6036 306.2692 0001788  99.1385   1.9715 15.49163461  4534
STARLINK-34845          
1 65289U 25184S   25255.91668981 -.01966123  00000+0 -45238-1 0  9999
2 65289  97.6031 306.2679 0001621  64.9887  31.9858 15.45914854  4535
STARLINK-34984          
1 65290U 25184T   25255.91668981  .00050497  00000+0  92520-3 0  9994
2 65290  97.6036 306.2716 0002023  87.4447  17.5142 15.49157780  4530
STARLINK-35002          
1 65291U 25184U   25255.91668981  .00047027  00000+0  86241-3 0  9993
2 65291  97.6035 306.2735 0001509  91.0757  17.7392 15.49149225  4538
STARLINK-35017          
1 65292U 25184V   25255.91668981 -.01585753  00000+0 -33776-1 0  9993
2 65292  97.6037 306.2731 0002156  67.5395  38.5695 15.47963638  4483
STARLINK-34951          
1 65293U 25184W   25255.91668981  .00045989  00000+0  84326-3 0  9992
2 65293  97.6038 306.2748 0001758  99.4011  13.2403 15.49157676  4531
STARLINK-34613          
1 65294U 25184X   25255.91668981  .00069521  00000+0  12710-2 0  9998
2 65294  97.6038 306.2757 0001840  87.8647  22.8825 15.49135125  4539
